DMSP 5D-3 F16 (USA 172) 
1 28054U 03048A   26014.59756904  .00000076  00000+0  63328-4 0  9990
2 28054  99.0028  37.3102 0006678 215.6251 224.3339 14.14437690147775
METEOSAT-9 (MSG-2)      
1 28912U 05049B   26013.74154184  .00000134  00000+0  00000+0 0  9992
2 28912   9.0112  55.6738 0002479 190.0702 180.1772  1.00278671  5454
DMSP 5D-3 F17 (USA 191) 
1 29522U 06050A   26014.58223345  .00000094  00000+0  70813-4 0  9991
2 29522  98.7395  24.2881 0010870 131.4949 228.7159 14.14935766990698
FENGYUN 3A              
1 32958U 08026A   26014.46157051  .00000054  00000+0  46251-4 0  9995
2 32958  98.6733 318.3060 0008116 204.7487 155.3301 14.19526521913595
GOES 14                 
1 35491U 09033A   26014.56251080  .00000100  00000+0  00000+0 0  9996
2 35491   1.2886  85.0357 0000943 253.6467 207.6009  1.00102608  5058
DMSP 5D-3 F18 (USA 210) 
1 35951U 09057A   26014.54084304  .00000216  00000+0  13513-3 0  9999
2 35951  98.8873 355.7847 0010693 332.9756  27.0859 14.14794048837866
EWS-G2 (GOES 15)        
1 36411U 10008A   26014.60047105  .00000056  00000+0  00000+0 0  9999
2 36411   0.8933  85.9545 0005136 189.9880 115.6626  1.00273978 58090
COMS 1                  
1 36744U 10032A   26013.54391903 -.00000330  00000+0  00000+0 0  9991
2 36744   4.4159  77.6104 0000868 233.7145 125.6773  1.00271373 49537
FENGYUN 3B              
1 37214U 10059A   26014.63774267  .00000224  00000+0  13959-3 0  9994
2 37214  98.9870  59.8388 0021101 261.7098 198.0493 14.14800311785714
SUOMI NPP               
1 37849U 11061A   26014.61059675  .00000037  00000+0  38639-4 0  9994
2 37849  98.7810 316.6625 0002460  64.3781 295.7649 14.19525105736658
METEOSAT-10 (MSG-3)     
1 38552U 12035B   26014.23170204  .00000008  00000+0  00000+0 0  9992
2 38552   4.3046  61.6366 0001859 283.4188 212.1000  1.00270871 49316
METOP-B                 
1 38771U 12049A   26014.52535049  .00000078  00000+0  55635-4 0  9990
2 38771  98.6752  68.9209 0003291  77.8601 282.2944 14.21422199691432
INSAT-3D                
1 39216U 13038B   26014.61399113 -.00000322  00000+0  00000+0 0  9998
2 39216   1.5295  84.6048 0001715 166.4785 213.5421  1.00270180 45541
FENGYUN 3C              
1 39260U 13052A   26014.60920363  .00000074  00000+0  58630-4 0  9999
2 39260  98.4802 355.6901 0015789 104.3097 255.9832 14.15707871636837
METEOR-M 2              
1 40069U 14037A   26014.62208197  .00000182  00000+0  10261-3 0  9995
2 40069  98.4938 355.9528 0006684 116.7692 243.4171 14.21402252597506
HIMAWARI-8              
1 40267U 14060A   26014.47544652 -.00000257  00000+0  00000+0 0  9993
2 40267   0.0108 171.8224 0000893 135.5908 118.3223  1.00271748 41214
FENGYUN 2G              
1 40367U 14090A   26014.60809777 -.00000289  00000+0  00000+0 0  9999
2 40367   5.2504  74.6999 0001533 186.4101 171.5349  1.00273696 40452
METEOSAT-11 (MSG-4)     
1 40732U 15034A   26014.59015765  .00000080  00000+0  00000+0 0  9996
2 40732   2.8181  71.8967 0000434 156.7651 107.2510  1.00277771  5674
ELEKTRO-L 2             
1 41105U 15074A   26014.37149624 -.00000105  00000+0  00000+0 0  9992
2 41105   6.3074  72.4355 0003633 219.4872 301.1386  1.00271349 36960
INSAT-3DR               
1 41752U 16054A   26014.46033013 -.00000058  00000+0  00000+0 0  9990
2 41752   0.0890  87.8021 0013998 187.3442  78.4975  1.00272682 34277
HIMAWARI-9              
1 41836U 16064A   26014.61615781 -.00000256  00000+0  00000+0 0  9999
2 41836   0.0480 235.9608 0000775 116.3249 124.3418  1.00268439 33679
GOES 16                 
1 41866U 16071A   26014.55179159 -.00000072  00000+0  00000+0 0  9993
2 41866   0.1040  97.6815 0002867 183.1887 287.0831  1.00271911 33565
FENGYUN 4A              
1 41882U 16077A   26014.61286446 -.00000340  00000+0  00000+0 0  9990
2 41882   1.9325  82.0663 0005068 133.6625 242.7815  1.00270505 33392
CYGFM05                 
1 41884U 16078A   26014.55780250  .00011866  00000+0  21234-3 0  9998
2 41884  34.9562 192.5250 0007713 126.2920 233.8515 15.49083784504858
CYGFM04                 
1 41885U 16078B   26014.51949955  .00015726  00000+0  25315-3 0  9997
2 41885  34.9319 166.5700 0006830 157.0988 203.0040 15.52015152505036
CYGFM02                 
1 41886U 16078C   26014.48678077  .00017266  00000+0  26298-3 0  9990
2 41886  34.9406 164.6689 0008382 156.7133 203.3971 15.53518046505162
CYGFM01                 
1 41887U 16078D   26013.57081396  .00014093  00000+0  24670-3 0  9999
2 41887  34.9396 201.1045 0007331 105.9918 254.1613 15.49681817504645
CYGFM08                 
1 41888U 16078E   26014.56626463  .00013814  00000+0  23054-3 0  9995
2 41888  34.9427 177.1718 0008852 145.2399 214.8903 15.51012622505033
CYGFM07                 
1 41890U 16078G   26014.49138853  .00015394  00000+0  25125-3 0  9997
2 41890  34.9447 166.4545 0007201 163.3657 196.7303 15.51633272505045
CYGFM03                 
1 41891U 16078H   26014.52318857  .00015267  00000+0  25024-3 0  9993
2 41891  34.9401 168.1859 0006694 147.6041 212.5094 15.51520346505029
FENGYUN 3D              
1 43010U 17072A   26014.65117763 -.00000217  00000+0 -80772-4 0  9993
2 43010  98.9933 346.4618 0002330 108.4699 251.6730 14.19694700423204
NOAA 20 (JPSS-1)        
1 43013U 17073A   26014.55467351  .00000038  00000+0  38801-4 0  9992
2 43013  98.7635 315.4987 0001517  39.9279 320.2008 14.19535859422677
GOES 17                 
1 43226U 18022A   26014.55955096 -.00000164  00000+0  00000+0 0  9997
2 43226   0.5420  88.6071 0002859 203.1396 294.2055  1.00271587 28882
FENGYUN 2H              
1 43491U 18050A   26014.60402441 -.00000111  00000+0  00000+0 0  9991
2 43491   2.6353  80.9695 0002261 176.3538 153.3434  1.00268927 27897
METOP-C                 
1 43689U 18087A   26014.62268979  .00000075  00000+0  53999-4 0  9996
2 43689  98.6880  76.8802 0000519 184.8433 175.2740 14.21498210373010
GEO-KOMPSAT-2A          
1 43823U 18100A   26014.30808809 -.00000325  00000+0  00000+0 0  9998
2 43823   0.0306 163.7919 0000688 249.1412 300.0054  1.00272491 26086
METEOR-M2 2             
1 44387U 19038A   26014.61358725 -.00000088  00000+0 -18409-4 0  9990
2 44387  98.9006 359.7512 0002294  91.6902 268.4539 14.24307201339439
ARKTIKA-M 1             
1 47719U 21016A   26012.97641839 -.00000177  00000+0  00000+0 0  9990
2 47719  63.1848  79.6974 7219918 269.2481  15.4078  2.00632572 35674
FENGYUN 3E              
1 49008U 21062A   26014.58289545 -.00000120  00000+0 -35876-4 0  9998
2 49008  98.7488  19.7165 0002000 137.1107 223.0226 14.19884293234788
GOES 18                 
1 51850U 22021A   26014.53940090  .00000116  00000+0  00000+0 0  9995
2 51850   0.0110 282.8480 0000777  78.0789 170.2401  1.00271923  5055
NOAA 21 (JPSS-2)        
1 54234U 22150A   26014.58979933  .00000039  00000+0  39403-4 0  9998
2 54234  98.7497 315.4945 0000653 294.6373  65.4735 14.19534652164756
METEOSAT-12 (MTG-I1)    
1 54743U 22170C   26014.58825097  .00000012  00000+0  00000+0 0  9993
2 54743   0.7260  29.1564 0001474 260.5217  35.8915  1.00275032 11436
TIANMU-1 03             
1 55973U 23039A   26014.60365709  .00009305  00000+0  21999-3 0  9994
2 55973  97.5113 183.2021 0002581 306.6175  53.4834 15.42050458157125
TIANMU-1 04             
1 55974U 23039B   26014.57573157  .00010009  00000+0  23366-3 0  9992
2 55974  97.5046 182.3515 0003259 298.2183  61.8735 15.42409100157122
TIANMU-1 05             
1 55975U 23039C   26014.57831280  .00009687  00000+0  22928-3 0  9990
2 55975  97.5093 182.8474 0002739 333.9254  26.1854 15.42003348157100
TIANMU-1 06             
1 55976U 23039D   26014.57684016  .00009865  00000+0  22997-3 0  9998
2 55976  97.5103 183.3384 0002981 325.2743  34.8309 15.42455812157125
FENGYUN 3G              
1 56232U 23055A   26014.53450603  .00018832  00000+0  29734-3 0  9991
2 56232  49.9941  58.3341 0004206  24.9181 335.1989 15.53481346156120
METEOR-M2 3             
1 57166U 23091A   26014.64491362 -.00000006  00000+0  16508-4 0  9998
2 57166  98.6330  72.6018 0002931 250.6209 109.4653 14.24030489132660
TIANMU-1 07             
1 57399U 23101A   26014.59356579  .00004241  00000+0  15500-3 0  9996
2 57399  97.2836  68.7225 0003089 343.5736  16.5403 15.28615478138177
TIANMU-1 08             
1 57400U 23101B   26014.62697225  .00003782  00000+0  13895-3 0  9993
2 57400  97.2825  68.5459 0004800 336.5272  23.5748 15.28510679138171
TIANMU-1 09             
1 57401U 23101C   26014.61235144  .00004132  00000+0  15096-3 0  9996
2 57401  97.2782  68.0293 0004272 341.8914  18.2173 15.28641294138171
TIANMU-1 10             
1 57402U 23101D   26014.58125620  .00004407  00000+0  16084-3 0  9993
2 57402  97.2863  68.8836 0005965 337.2080  22.8895 15.28634278138161
FENGYUN 3F              
1 57490U 23111A   26014.64010025  .00000034  00000+0  36645-4 0  9998
2 57490  98.7034  87.3955 0001248 115.4755 244.6550 14.19903349127074
ARKTIKA-M 2             
1 58584U 23198A   26012.73459105  .00000183  00000+0  00000+0 0  9998
2 58584  63.2247 171.5166 6868296 267.9781  18.8360  2.00601360 15200
TIANMU-1 11             
1 58645U 23205A   26014.62441153  .00003386  00000+0  13821-3 0  9996
2 58645  97.3589  38.6758 0009192 175.8379 184.2938 15.25059780114103
TIANMU-1 12             
1 58646U 23205B   26014.58812159  .00003497  00000+0  14311-3 0  9998
2 58646  97.3576  38.4348 0008001 157.5175 202.6415 15.24956078114089
TIANMU-1 13             
1 58647U 23205C   26014.62072596  .00003573  00000+0  14593-3 0  9994
2 58647  97.3605  38.6820 0008768 141.1004 219.0866 15.25000890114085
TIANMU-1 14             
1 58648U 23205D   26014.60451501  .00003720  00000+0  15187-3 0  9994
2 58648  97.3537  37.9846 0009466 145.8753 214.3095 15.24981526114083
TIANMU-1 19             
1 58660U 23208A   26014.61484402  .00005273  00000+0  19248-3 0  9995
2 58660  97.4380 130.6027 0006103 132.8673 227.3080 15.28554313113843
TIANMU-1 20             
1 58661U 23208B   26014.57579693  .00005429  00000+0  19094-3 0  9990
2 58661  97.4317 131.0435 0008175 143.5369 216.6429 15.29745322113913
TIANMU-1 21             
1 58662U 23208C   26014.58518323  .00006412  00000+0  20746-3 0  9994
2 58662  97.4367 133.1118 0007692 138.5771 221.6055 15.32380947114020
TIANMU-1 22             
1 58663U 23208D   26014.62043803  .00004990  00000+0  18397-3 0  9994
2 58663  97.4374 130.6512 0004428 150.5339 209.6151 15.28257824113852
TIANMU-1 15             
1 58700U 24004A   26014.60149704  .00004328  00000+0  17668-3 0  9991
2 58700  97.4633 200.9563 0007439 160.1128 200.0401 15.24923937112355
TIANMU-1 16             
1 58701U 24004B   26014.65166617  .00003967  00000+0  16210-3 0  9999
2 58701  97.4572 200.3696 0005799 160.0357 200.1109 15.24951466112364
TIANMU-1 17             
1 58702U 24004C   26014.63534458  .00003858  00000+0  15753-3 0  9990
2 58702  97.4605 200.7802 0004960 159.6847 200.4589 15.24992214112352
TIANMU-1 18             
1 58703U 24004D   26014.61908729  .00003686  00000+0  15080-3 0  9997
2 58703  97.4623 200.9660 0004418 156.2800 203.8643 15.24965039112350
INSAT-3DS               
1 58990U 24033A   26014.60454441 -.00000137  00000+0  00000+0 0  9994
2 58990   0.0838 264.9115 0001589  65.0462  83.8263  1.00272124 45521
METEOR-M2 4             
1 59051U 24039A   26014.62579603  .00000005  00000+0  21828-4 0  9998
2 59051  98.6812 336.0269 0005985 252.4496 107.6028 14.22407185 97435
GOES 19                 
1 60133U 24119A   26014.57343087 -.00000229  00000+0  00000+0 0  9992
2 60133   0.0090 284.0741 0001084  62.9706 258.2275  1.00271773  5423
FENGYUN 3H              
1 65815U 25219A   26014.56631902  .00000029  00000+0  33939-4 0  9990
2 65815  98.6621 318.4505 0001319 105.2141 254.9182 14.19915049 15586
